IRIDIUM 150             
1 43257U 18030J   26013.68063708  .00000207  00000+0  66707-4 0  9991
2 43257  86.3981 355.0526 0002267  85.0652 275.0803 14.34220011408013
IRIDIUM 143             
1 43258U 18030K   26013.94068811  .00000034  00000+0  49219-5 0  9999
2 43258  86.3983 355.0305 0002319  82.2590 277.8869 14.34217847407989
IRIDIUM 161             
1 43478U 18047C   26013.76921508  .00000300  00000+0  83299-4 0  9993
2 43478  86.4531 153.0080 0001891 102.4616 257.6797 14.43281003402860
IRIDIUM 152             
1 43479U 18047D   26013.42502549 -.00000012  00000+0 -11306-4 0  9999
2 43479  86.4010 153.0126 0001912 100.1482 259.9930 14.34217763400307
IRIDIUM 147             
1 43480U 18047E   26013.64067385 -.00000048  00000+0 -24256-4 0  9996
2 43480  86.4011 152.9250 0001905  92.0238 268.1176 14.34217578400337
IRIDIUM 110             
1 43481U 18047F   26013.43771029  .00000113  00000+0  33238-4 0  9992
2 43481  86.4009 153.0970 0001866 109.0889 251.0509 14.34218053400298
IRIDIUM 162             
1 43482U 18047G   26013.76293169  .00000309  00000+0  85834-4 0  9999
2 43482  86.4529 152.9036 0002388  97.6521 262.4951 14.43281510402851
IRIDIUM 160             
1 43569U 18061A   26013.73238947  .00000070  00000+0  17782-4 0  9993
2 43569  86.3994 121.3908 0001961 101.0193 259.1223 14.34217769391230
